NORAD_CAT_ID,OBJECT_NAME,OBJECT_TYPE,EPOCH,MEAN_MOTION,ECCENTRICITY,INCLINATION,RA_OF_ASC_NODE,ARG_OF_PERICENTER,MEAN_ANOMALY,BSTAR,MEAN_MOTION_DOT,MEAN_MOTION_DDOT,TLE_LINE0,TLE_LINE1,TLE_LINE2,SEMIMAJOR_AXIS,PERIOD,APOGEE,PERIGEE,DECAYED
53278.0,STARLINK-4180,PAYLOAD,2023-02-08 17:35:59,15.08838452,0.0001233,53.214,194.2505,89.4806,270.6327,-2.4403e-05,-6.76e-06,0.0,0 STARLINK-4180,1 53278U 22086AN  23039.73333126 -.00000676  00000-0 -24403-4 0  9996,2 53278  53.2140 194.2505 0001233  89.4806 270.6327 15.08838452 31197,6917.885,95.438,540.603,538.897,0.0
53278.0,STARLINK-4180,PAYLOAD,2023-02-08 19:11:22,15.08843571,0.0001284,53.2137,193.9537,87.2955,272.8184,2.898e-05,1.73e-06,0.0,0 STARLINK-4180,1 53278U 22086AN  23039.79956665  .00000173  00000-0  28980-4 0  9995,2 53278  53.2137 193.9537 0001284  87.2955 272.8184 15.08843571 31374,6917.869,95.437,540.623,538.846,0.0
53278.0,STARLINK-4180,PAYLOAD,2023-02-09 03:08:18,15.08837254,0.0001246,53.2126,192.4675,92.1825,267.931,-8.0922e-06,-4.17e-06,0.0,0 STARLINK-4180,1 53278U 22086AN  23040.13077140 -.00000417  00000-0 -80922-5 0  9995,2 53278  53.2126 192.4675 0001246  92.1825 267.9310 15.08837254 31421,6917.889,95.438,540.616,538.892,0.0
53278.0,STARLINK-4180,PAYLOAD,2023-02-09 17:26:46,15.08842928,0.0001127,53.2136,189.791,85.9665,274.1455,8.3078e-05,1.035e-05,0.0,0 STARLINK-4180,1 53278U 22086AN  23040.72692682  .00001035  00000-0  83078-4 0  9993,2 53278  53.2136 189.7910 0001127  85.9665 274.1455 15.08842928 31517,6917.871,95.437,540.516,538.957,0.0
53278.0,STARLINK-4180,PAYLOAD,2023-02-10 02:59:05,15.08838255,0.0001144,53.2141,188.0075,74.7131,285.3988,5.1466e-05,5.31e-06,0.0,0 STARLINK-4180,1 53278U 22086AN  23041.12437146  .00000531  00000-0  51466-4 0  9996,2 53278  53.2141 188.0075 0001144  74.7131 285.3988 15.08838255 31579,6917.886,95.438,540.542,538.959,0.0
53278.0,STARLINK-4180,PAYLOAD,2023-02-10 12:31:24,15.08833644,0.0001182,53.2142,186.222,75.3465,284.7658,4.8287e-05,4.81e-06,0.0,0 STARLINK-4180,1 53278U 22086AN  23041.52181586  .00000481  00000-0  48287-4 0  9995,2 53278  53.2142 186.2220 0001182  75.3465 284.7658 15.08833644 31463,6917.9,95.438,540.583,538.947,0.0
53278.0,STARLINK-4180,PAYLOAD,2023-02-10 15:42:10,15.08843355,0.0001133,53.2131,185.6267,75.7089,284.4029,5.3793e-06,-2.02e-06,0.0,0 STARLINK-4180,1 53278U 22086AN  23041.65429125 -.00000202  00000-0  53793-5 0  9994,2 53278  53.2131 185.6267 0001133  75.7089 284.4029 15.08843355 31657,6917.87,95.437,540.519,538.951,0.0
53278.0,STARLINK-4180,PAYLOAD,2023-02-11 02:49:52,15.08844506,0.0001017,53.2136,183.5462,76.1361,283.9745,9.3672e-06,-1.39e-06,0.0,0 STARLINK-4180,1 53278U 22086AN  23042.11796853 -.00000139  00000-0  93672-5 0  9990,2 53278  53.2136 183.5462 0001017  76.1361 283.9745 15.08844506 31552,6917.867,95.437,540.435,539.028,0.0
53278.0,STARLINK-4180,PAYLOAD,2023-02-11 12:22:11,15.08832707,9.79e-05,53.2149,181.7613,93.6271,266.4833,1.3793e-05,-6.8e-07,0.0,0 STARLINK-4180,1 53278U 22086AN  23042.51541643 -.00000068  00000-0  13793-4 0  9995,2 53278  53.2149 181.7613 0000979  93.6271 266.4833 15.08832707 31783,6917.903,95.438,540.445,539.09,0.0
53278.0,STARLINK-4180,PAYLOAD,2023-02-11 18:43:43,15.08852613,0.0001247,53.2147,180.5727,80.8769,279.2364,7.8828e-05,9.67e-06,0.0,0 STARLINK-4180,1 53278U 22086AN  23042.78036247  .00000967  00000-0  78828-4 0  9990,2 53278  53.2147 180.5727 0001247  80.8769 279.2364 15.08852613 31827,6917.842,95.437,540.569,538.844,0.0
53278.0,STARLINK-4180,PAYLOAD,2023-02-12 02:40:40,15.0883425,0.0001032,53.214,179.0854,87.1864,272.9247,-1.6779e-05,-5.55e-06,0.0,0 STARLINK-4180,1 53278U 22086AN  23043.11157620 -.00000555  00000-0 -16779-4 0  9999,2 53278  53.2140 179.0854 0001032  87.1864 272.9247 15.08834250 31706,6917.898,95.438,540.477,539.049,0.0
53278.0,STARLINK-4180,PAYLOAD,2023-02-12 12:12:59,15.08829029,0.0001227,53.2142,177.3019,89.261,270.8522,-2.2601e-05,-6.47e-06,0.0,0 STARLINK-4180,1 53278U 22086AN  23043.50902261 -.00000647  00000-0 -22601-4 0  9994,2 53278  53.2142 177.3019 0001227  89.2610 270.8522 15.08829029 31936,6917.914,95.438,540.628,538.93,0.0
53278.0,STARLINK-4180,PAYLOAD,2023-02-12 20:09:53,15.08850687,0.0001028,53.2145,175.8142,82.2676,277.8433,3.8454e-05,3.24e-06,0.0,0 STARLINK-4180,1 53278U 22086AN  23043.84020617  .00000324  00000-0  38454-4 0  9990,2 53278  53.2145 175.8142 0001028  82.2676 277.8433 15.08850687 31812,6917.848,95.437,540.424,539.002,0.0
53278.0,STARLINK-4180,PAYLOAD,2023-02-13 10:28:22,15.08841102,0.0001314,53.2147,173.1333,135.5172,224.5926,0.0001065,1.408e-05,0.0,0 STARLINK-4180,1 53278U 22086AN  23044.43636744  .00001408  00000-0  10650-3 0  9991,2 53278  53.2147 173.1333 0001314 135.5172 224.5926 15.08841102 31906,6917.877,95.437,540.651,538.833,0.0
53278.0,STARLINK-4180,PAYLOAD,2023-02-13 18:25:16,15.08867807,0.0001531,53.2167,171.6538,103.279,256.8373,0.0001676,2.382e-05,0.0,0 STARLINK-4180,1 53278U 22086AN  23044.76754948  .00002382  00000-0  16760-3 0  9994,2 53278  53.2167 171.6538 0001531 103.2790 256.8373 15.08867807 31956,6917.795,95.436,540.72,538.601,0.0
53278.0,STARLINK-4180,PAYLOAD,2023-02-14 08:43:46,15.08828615,0.0001456,53.2156,168.975,97.5215,262.5943,5.4502e-05,5.79e-06,0.0,0 STARLINK-4180,1 53278U 22086AN  23045.36373637  .00000579  00000-0  54502-4 0  9996,2 53278  53.2156 168.9750 0001456  97.5215 262.5943 15.08828615 32044,6917.915,95.438,540.787,538.773,0.0
53278.0,STARLINK-4180,PAYLOAD,2023-02-14 15:05:19,15.08835013,0.0001621,53.2155,167.787,93.0183,267.0994,8.0698e-05,9.96e-06,0.0,0 STARLINK-4180,1 53278U 22086AN  23045.62869304  .00000996  00000-0  80698-4 0  9994,2 53278  53.2155 167.7870 0001621  93.0183 267.0994 15.08835013 32251,6917.896,95.438,540.882,538.639,0.0
53278.0,STARLINK-4180,PAYLOAD,2023-02-14 19:51:27,15.08858423,7.64e-05,53.2153,166.8932,81.9689,278.1389,8.7841e-05,1.111e-05,0.0,0 STARLINK-4180,1 53278U 22086AN  23045.82739602  .00001111  00000-0  87841-4 0  9990,2 53278  53.2153 166.8932 0000764  81.9689 278.1389 15.08858423 32118,6917.824,95.436,540.218,539.161,0.0
53278.0,STARLINK-4180,PAYLOAD,2023-02-15 00:37:39,15.08823214,0.0001476,53.2145,166.0,88.7958,271.3203,-0.00018159,-3.175e-05,0.0,0 STARLINK-4180,1 53278U 22086AN  23046.02614828 -.00003175  00000-0 -18159-3 0  9994,2 53278  53.2145 166.0000 0001476  88.7958 271.3203 15.08823214 32145,6917.932,95.439,540.818,538.776,0.0
53278.0,STARLINK-4180,PAYLOAD,2023-02-15 11:45:19,15.08845706,0.0001198,53.2151,163.9204,96.1615,263.9513,-0.0001318,-2.385e-05,0.0,0 STARLINK-4180,1 53278U 22086AN  23046.48981397 -.00002385  00000-0 -13180-3 0  9993,2 53278  53.2151 163.9204 0001198  96.1615 263.9513 15.08845706 32217,6917.863,95.437,540.557,538.899,0.0
53278.0,STARLINK-4180,PAYLOAD,2023-02-15 14:56:04,15.08863458,0.0001112,53.2148,163.3253,99.1416,260.9702,2.2104e-05,6.4e-07,0.0,0 STARLINK-4180,1 53278U 22086AN  23046.62227694  .00000064  00000-0  22104-4 0  9999,2 53278  53.2148 163.3253 0001112  99.1416 260.9702 15.08863458 32401,6917.809,95.436,540.443,538.904,0.0
53278.0,STARLINK-4180,PAYLOAD,2023-02-15 18:06:50,15.0886944,0.0001218,53.2146,162.7292,95.6712,264.4419,9.5282e-05,1.23e-05,0.0,0 STARLINK-4180,1 53278U 22086AN  23046.75474961  .00001230  00000-0  95282-4 0  9997,2 53278  53.2146 162.7292 0001218  95.6712 264.4419 15.08869440 32256,6917.79,95.436,540.498,538.813,0.0
53278.0,STARLINK-4180,PAYLOAD,2023-02-16 13:11:28,15.0885812,0.0001663,53.2155,159.1618,110.7814,249.3356,0.00020201,2.93e-05,0.0,0 STARLINK-4180,1 53278U 22086AN  23047.54963077  .00002930  00000-0  20201-3 0  9992,2 53278  53.2155 159.1618 0001663 110.7814 249.3356 15.08858120 32372,6917.825,95.436,540.84,538.54,0.0
53278.0,STARLINK-4180,PAYLOAD,2023-02-16 16:22:13,15.08870691,9.85e-05,53.2144,158.5653,103.579,256.5312,0.00029756,4.455e-05,0.0,0 STARLINK-4180,1 53278U 22086AN  23047.68209777  .00004455  00000-0  29756-3 0  9995,2 53278  53.2144 158.5653 0000985 103.5790 256.5312 15.08870691 32392,6917.787,95.436,540.333,538.97,0.0
53278.0,STARLINK-4180,PAYLOAD,2023-02-17 13:02:18,15.08821229,0.0001211,53.2145,154.7,97.0099,263.1031,-8.5738e-05,-1.651e-05,0.0,0 STARLINK-4180,1 53278U 22086AN  23048.54326559 -.00001651  00000-0 -85738-4 0  9999,2 53278  53.2145 154.7000 0001211  97.0099 263.1031 15.08821229 32529,6917.938,95.439,540.641,538.965,0.0
53278.0,STARLINK-4180,PAYLOAD,2023-02-17 16:13:04,15.08833007,0.0001247,53.215,154.1044,91.3161,268.7974,-0.00025641,-4.365e-05,0.0,0 STARLINK-4180,1 53278U 22086AN  23048.67574445 -.00004365  00000-0 -25641-3 0  9993,2 53278  53.2150 154.1044 0001247  91.3161 268.7974 15.08833007 32718,6917.902,95.438,540.629,538.904,0.0
53278.0,STARLINK-4180,PAYLOAD,2023-02-18 06:31:33,15.08819391,0.0001121,53.2145,151.4293,111.1056,249.0056,-0.00011492,-2.115e-05,0.0,0 STARLINK-4180,1 53278U 22086AN  23049.27191276 -.00002115  00000-0 -11492-3 0  9997,2 53278  53.2145 151.4293 0001121 111.1056 249.0056 15.08819391 32637,6917.943,95.439,540.584,539.033,0.0
53278.0,STARLINK-4180,PAYLOAD,2023-02-18 12:53:05,15.08832182,0.0001299,53.2151,150.2436,110.0429,250.0703,-0.00017197,-3.023e-05,0.0,0 STARLINK-4180,1 53278U 22086AN  23049.53686962 -.00003023  00000-0 -17197-3 0  9994,2 53278  53.2151 150.2436 0001299 110.0429 250.0703 15.08832182 32845,6917.904,95.438,540.668,538.871,0.0
53278.0,STARLINK-4180,PAYLOAD,2023-02-19 00:00:46,15.08847464,0.0001078,53.2143,148.1603,107.1664,252.9446,-0.00016586,-2.927e-05,0.0,0 STARLINK-4180,1 53278U 22086AN  23050.00053912 -.00002927  00000-0 -16586-3 0  9994,2 53278  53.2143 148.1603 0001078 107.1664 252.9446 15.08847464 32744,6917.858,95.437,540.468,538.977,0.0
53278.0,STARLINK-4180,PAYLOAD,2023-02-19 12:43:51,15.08846824,0.0001053,53.2135,145.7791,122.6783,237.4311,8.6044e-05,1.082e-05,0.0,0 STARLINK-4180,1 53278U 22086AN  23050.53045825  .00001082  00000-0  86044-4 0  9992,2 53278  53.2135 145.7791 0001053 122.6783 237.4311 15.08846824 32998,6917.86,95.437,540.453,538.996,0.0
